[{"OBJECT_NAME":"ORBCOMM FM27","OBJECT_ID":"1998-053G","EPOCH":"2026-03-09T11:53:47.305824","MEAN_MOTION":14.3893044,"ECCENTRICITY":0.00018909,"INCLINATION":45.0048,"RA_OF_ASC_NODE":88.78,"ARG_OF_PERICENTER":259.8961,"MEAN_ANOMALY":100.1675,"EPHEMERIS_TYPE":0,"CLASSIFICATION_TYPE":"U","NORAD_CAT_ID":25481,"ELEMENT_SET_NO":999,"REV_AT_EPOCH":43587,"BSTAR":0.00047812945,"MEAN_MOTION_DOT":1.345e-5,"MEAN_MOTION_DDOT":0},{"OBJECT_NAME":"DELTA 1 DEB","OBJECT_ID":"1978-026BH","EPOCH":"2026-03-09T21:58:26.366016","MEAN_MOTION":14.01601479,"ECCENTRICITY":0.01825602,"INCLINATION":99.0918,"RA_OF_ASC_NODE":188.913,"ARG_OF_PERICENTER":38.4501,"MEAN_ANOMALY":322.9511,"EPHEMERIS_TYPE":0,"CLASSIFICATION_TYPE":"U","NORAD_CAT_ID":12216,"ELEMENT_SET_NO":999,"REV_AT_EPOCH":27993,"BSTAR":0.00073478845,"MEAN_MOTION_DOT":1.243e-5,"MEAN_MOTION_DDOT":0}]
